ONEWEB-0080             
1 45426U 20020C   24139.50865778 -.00000371  00000+0 -10837-2 0  9993
2 45426  87.8974 172.2024 0002441  98.8231 261.3173 13.11333567203142
ONEWEB-0090             
1 45427U 20020D   24138.83921688  .00000333  00000+0  90450-3 0  9998
2 45427  87.8983 172.3172 0002118  93.3702 266.7668 13.11424585203017
ONEWEB-0061             
1 45428U 20020E   24139.17669524  .00000100  00000+0  24605-3 0  9996
2 45428  87.8975 172.2501 0002084  95.5628 264.5738 13.11444327203017
ONEWEB-0081             
1 45429U 20020F   24138.85260001  .00000614  00000+0  16987-2 0  9991
2 45429  87.8978 172.3316 0001976 101.3012 258.8338 13.11364608203080
ONEWEB-0069             
1 45430U 20020G   24139.14774179  .00000412  00000+0  11265-2 0  9992
2 45430  87.8978 172.2617 0002158  93.2129 266.9246 13.11411594203069
ONEWEB-0031             
1 45431U 20020H   24138.81359381 -.00000539  00000+0 -15588-2 0  9994
2 45431  87.8984 172.3342 0001995  87.5712 272.5644 13.11366884202992
ONEWEB-0027             
1 45432U 20020J   24138.80565484  .00000069  00000+0  14408-3 0  9994
2 45432  87.9164 157.1998 0002219  80.9363 279.2019 13.17652264206227
ONEWEB-0064             
1 45433U 20020K   24138.81191311 -.00000542  00000+0 -15658-2 0  9995
2 45433  87.8978 172.3446 0002344  90.5570 269.5827 13.11373055203029
